FLOCK 4G-23             
1 62647U 25009AQ  26068.71663397  .00012440  00000+0  46816-3 0  9993
2 62647  97.3979 150.9478 0000905   7.2707 352.8545 15.27262579 63728
STARLINK-36445          
1 67313U 26002J   26068.09217221  .00027346  00000+0  99900-3 0  9997
2 67313  43.0014 328.9810 0001036 287.6942  72.3796 15.27599119 11143
